{
  "type": "FeatureCollection",
  "features": [
    {
      "type": "Feature",
      "properties": {
        "norad_id": 44333,
        "name": "AT&T T-16",
        "group": "intelsat",
        "lat": 0.010833335846171901,
        "lon": 50.276802288137,
        "alt_km": 35788.06501617336,
        "timestamp": "2025-12-09T04:51:47.176172+00:00",
        "meta_object_name": "AT&T T-16",
        "meta_object_id": "2019-034A",
        "meta_epoch": "2025-12-08T16:32:42.844128",
        "meta_mean_motion": 1.00270858,
        "meta_eccentricity": 8.41e-05,
        "meta_inclination": 0.0236,
        "meta_ra_of_asc_node": 60.5589,
        "meta_arg_of_pericenter": 108.7529,
        "meta_mean_anomaly": 55.7048,
        "meta_ephemeris_type": 0,
        "meta_classification_type": "U",
        "meta_norad_cat_id": 44333,
        "meta_element_set_no": 999,
        "meta_rev_at_epoch": 2372,
        "meta_bstar": 0,
        "meta_mean_motion_dot": -1.13e-06,
        "meta_mean_motion_ddot": 0,
        "tle_line1": "1 44333U 19034A   25342.68938477 -.00000113  00000+0  00000+0 0  9996",
        "tle_line2": "2 44333   0.0236  60.5589 0000841 108.7529  55.7048  1.00270858 23722"
      },
      "geometry": {
        "type": "Point",
        "coordinates": [
          50.276802288137,
          0.010833335846171901
        ]
      }
    },
    {
      "type": "Feature",
      "properties": {
        "norad_id": 44476,
        "name": "INTELSAT 39 (IS-39)",
        "group": "intelsat",
        "lat": -0.03265783395969771,
        "lon": -146.90732718756462,
        "alt_km": 35784.52723852451,
        "timestamp": "2025-12-09T04:51:47.176184+00:00",
        "meta_object_name": "INTELSAT 39 (IS-39)",
        "meta_object_id": "2019-049B",
        "meta_epoch": "2025-12-08T10:28:25.232160",
        "meta_mean_motion": 1.00270315,
        "meta_eccentricity": 8.757e-05,
        "meta_inclination": 0.0178,
        "meta_ra_of_asc_node": 326.9811,
        "meta_arg_of_pericenter": 187.7371,
        "meta_mean_anomaly": 141.7767,
        "meta_ephemeris_type": 0,
        "meta_classification_type": "U",
        "meta_norad_cat_id": 44476,
        "meta_element_set_no": 999,
        "meta_rev_at_epoch": 2321,
        "meta_bstar": 0,
        "meta_mean_motion_dot": 3.6e-07,
        "meta_mean_motion_ddot": 0,
        "tle_line1": "1 44476U 19049B   25342.43640315  .00000036  00000+0  00000+0 0  9997",
        "tle_line2": "2 44476   0.0178 326.9811 0000875 187.7371 141.7767  1.00270315 23217"
      },
      "geometry": {
        "type": "Point",
        "coordinates": [
          -146.90732718756462,
          -0.03265783395969771
        ]
      }
    },
    {
      "type": "Feature",
      "properties": {
        "norad_id": 46114,
        "name": "GALAXY 30 (G-30)",
        "group": "intelsat",
        "lat": 0.02385690159316352,
        "lon": 26.156957766989493,
        "alt_km": 35792.7750916014,
        "timestamp": "2025-12-09T04:51:47.176195+00:00",
        "meta_object_name": "GALAXY 30 (G-30)",
        "meta_object_id": "2020-056C",
        "meta_epoch": "2025-12-08T16:25:58.490400",
        "meta_mean_motion": 1.00271162,
        "meta_eccentricity": 0.0002417,
        "meta_inclination": 0.018,
        "meta_ra_of_asc_node": 351.851,
        "meta_arg_of_pericenter": 264.4369,
        "meta_mean_anomaly": 302.8891,
        "meta_ephemeris_type": 0,
        "meta_classification_type": "U",
        "meta_norad_cat_id": 46114,
        "meta_element_set_no": 999,
        "meta_rev_at_epoch": 1938,
        "meta_bstar": 0,
        "meta_mean_motion_dot": 3.9e-07,
        "meta_mean_motion_ddot": 0,
        "tle_line1": "1 46114U 20056C   25342.68470475  .00000039  00000+0  00000+0 0  9996",
        "tle_line2": "2 46114   0.0180 351.8510 0002417 264.4369 302.8891  1.00271162 19380"
      },
      "geometry": {
        "type": "Point",
        "coordinates": [
          26.156957766989493,
          0.02385690159316352
        ]
      }
    },
    {
      "type": "Feature",
      "properties": {
        "norad_id": 54026,
        "name": "GALAXY 33 (G-33)",
        "group": "intelsat",
        "lat": 0.026922904104973066,
        "lon": 18.16245901563372,
        "alt_km": 35791.98922819648,
        "timestamp": "2025-12-09T04:51:47.176207+00:00",
        "meta_object_name": "GALAXY 33 (G-33)",
        "meta_object_id": "2022-128A",
        "meta_epoch": "2025-12-08T14:41:01.039776",
        "meta_mean_motion": 1.00271783,
        "meta_eccentricity": 0.0002267,
        "meta_inclination": 0.0159,
        "meta_ra_of_asc_node": 302.3575,
        "meta_arg_of_pericenter": 307.2936,
        "meta_mean_anomaly": 275.2198,
        "meta_ephemeris_type": 0,
        "meta_classification_type": "U",
        "meta_norad_cat_id": 54026,
        "meta_element_set_no": 999,
        "meta_rev_at_epoch": 1183,
        "meta_bstar": 0,
        "meta_mean_motion_dot": 8.1e-07,
        "meta_mean_motion_ddot": 0,
        "tle_line1": "1 54026U 22128A   25342.61181759  .00000081  00000+0  00000+0 0  9993",
        "tle_line2": "2 54026   0.0159 302.3575 0002267 307.2936 275.2198  1.00271783 11832"
      },
      "geometry": {
        "type": "Point",
        "coordinates": [
          18.16245901563372,
          0.026922904104973066
        ]
      }
    },
    {
      "type": "Feature",
      "properties": {
        "norad_id": 54027,
        "name": "GALAXY 34 (G-34)",
        "group": "intelsat",
        "lat": 0.03783910951977508,
        "lon": 22.214256729970703,
        "alt_km": 35790.42168613883,
        "timestamp": "2025-12-09T04:51:47.176218+00:00",
        "meta_object_name": "GALAXY 34 (G-34)",
        "meta_object_id": "2022-128B",
        "meta_epoch": "2025-12-08T12:04:59.032992",
        "meta_mean_motion": 1.00270185,
        "meta_eccentricity": 0.00012919,
        "meta_inclination": 0.0269,
        "meta_ra_of_asc_node": 317.8338,
        "meta_arg_of_pericenter": 287.9468,
        "meta_mean_anomaly": 244.0411,
        "meta_ephemeris_type": 0,
        "meta_classification_type": "U",
        "meta_norad_cat_id": 54027,
        "meta_element_set_no": 999,
        "meta_rev_at_epoch": 1200,
        "meta_bstar": 0,
        "meta_mean_motion_dot": 0,
        "meta_mean_motion_ddot": 0,
        "tle_line1": "1 54027U 22128B   25342.50346103  .00000000  00000+0  00000+0 0  9999",
        "tle_line2": "2 54027   0.0269 317.8338 0001291 287.9468 244.0411  1.00270185 12000"
      },
      "geometry": {
        "type": "Point",
        "coordinates": [
          22.214256729970703,
          0.03783910951977508
        ]
      }
    },
    {
      "type": "Feature",
      "properties": {
        "norad_id": 54243,
        "name": "GALAXY 31 (G-31)",
        "group": "intelsat",
        "lat": 0.022031475660120876,
        "lon": 30.16226676036315,
        "alt_km": 35790.29230175445,
        "timestamp": "2025-12-09T04:51:47.176230+00:00",
        "meta_object_name": "GALAXY 31 (G-31)",
        "meta_object_id": "2022-153A",
        "meta_epoch": "2025-12-08T16:27:13.368960",
        "meta_mean_motion": 1.0027162,
        "meta_eccentricity": 0.0001927,
        "meta_inclination": 0.0212,
        "meta_ra_of_asc_node": 257.6469,
        "meta_arg_of_pericenter": 11.6526,
        "meta_mean_anomaly": 294.1971,
        "meta_ephemeris_type": 0,
        "meta_classification_type": "U",
        "meta_norad_cat_id": 54243,
        "meta_element_set_no": 999,
        "meta_rev_at_epoch": 522,
        "meta_bstar": 0,
        "meta_mean_motion_dot": 1.5e-07,
        "meta_mean_motion_ddot": 0,
        "tle_line1": "1 54243U 22153A   25342.68557140  .00000015  00000+0  00000+0 0  9997",
        "tle_line2": "2 54243   0.0212 257.6469 0001927  11.6526 294.1971  1.00271620  5225"
      },
      "geometry": {
        "type": "Point",
        "coordinates": [
          30.16226676036315,
          0.022031475660120876
        ]
      }
    },
    {
      "type": "Feature",
      "properties": {
        "norad_id": 54244,
        "name": "GALAXY 32 (G-32)",
        "group": "intelsat",
        "lat": 0.029586476263781126,
        "lon": 60.16618506918185,
        "alt_km": 35790.86465534742,
        "timestamp": "2025-12-09T04:51:47.176241+00:00",
        "meta_object_name": "GALAXY 32 (G-32)",
        "meta_object_id": "2022-153B",
        "meta_epoch": "2025-12-08T12:27:22.096800",
        "meta_mean_motion": 1.00270602,
        "meta_eccentricity": 0.00027139,
        "meta_inclination": 0.0093,
        "meta_ra_of_asc_node": 341.4541,
        "meta_arg_of_pericenter": 326.1977,
        "meta_mean_anomaly": 225.7141,
        "meta_ephemeris_type": 0,
        "meta_classification_type": "U",
        "meta_norad_cat_id": 54244,
        "meta_element_set_no": 999,
        "meta_rev_at_epoch": 1123,
        "meta_bstar": 0,
        "meta_mean_motion_dot": -1.72e-06,
        "meta_mean_motion_ddot": 0,
        "tle_line1": "1 54244U 22153B   25342.51900575 -.00000172  00000+0  00000+0 0  9999",
        "tle_line2": "2 54244   0.0093 341.4541 0002713 326.1977 225.7141  1.00270602 11230"
      },
      "geometry": {
        "type": "Point",
        "coordinates": [
          60.16618506918185,
          0.029586476263781126
        ]
      }
    }
  ]
}